TRITON-1                
1 39427U 13066M   26189.56761583  .00001119  00000+0  13897-3 0  9990
2 39427  97.8222  98.8863 0090059 163.6141 196.8017 14.81779032677255
GOMX-1                  
1 39430U 13066Q   26189.49850787  .00001039  00000+0  16192-3 0  9993
2 39430  97.6476  28.6162 0128873   9.7097 350.6555 14.69531389673044
CUBEBUG-2 (LO-74)       
1 39440U 13066AA  26189.29650490  .00001757  00000+0  16589-3 0  9998
2 39440  97.8910 138.3670 0056194 318.9114  40.7880 14.93939383680144
NEE-02 KRYSAOR          
1 39441U 13066AB  26189.27579641  .00001374  00000+0  15492-3 0  9992
2 39441  97.8887 128.3413 0066040   2.0720 358.0757 14.86719769679330
FUNCUBE-1 (AO-73)       
1 39444U 13066AE  26189.33367698  .00004760  00000+0  29429-3 0  9996
2 39444  97.8284 161.2250 0037706 130.0497 230.4049 15.09759525682857
UWE-3                   
1 39446U 13066AG  26189.33612893  .00001733  00000+0  15204-3 0  9991
2 39446  97.8696 145.5560 0047521 248.4998 111.1154 14.97171964680740
SMDC ONE 2.4            
1 39469U 13072H   26189.14100833  .00009391  00000+0  35178-3 0  9998
2 39469 120.4916  73.0108 0147503  41.1273 320.0813 15.18668747121018
COSMOS 2488 (RODNIK-S 7)
1 39483U 13076A   26189.53019729 -.00000053  00000+0 -45443-3 0  9998
2 39483  82.4849 155.3981 0020773  51.3489 308.9446 12.42905860568544
COSMOS 2489 (RODNIK-S 8)
1 39484U 13076B   26189.58634609 -.00000035  00000+0 -32648-3 0  9997
2 39484  82.4886 156.7489 0022581  51.0057 309.3029 12.42879705568608
COSMOS 2490 (RODNIK-S 9)
1 39485U 13076C   26189.55826484  .00000043  00000+0  23635-3 0  9992
2 39485  82.4833 154.8245 0022897  65.9034 294.4438 12.42878983568536
KAZEOSAT 1              
1 39731U 14024A   26189.53103339  .00000354  00000+0  12092-3 0  9995
2 39731  98.3194 261.4472 0001285  81.3703 278.7632 14.42036712641638
COSMOS 2496 (RODNIK-S *)
1 39761U 14028A   26189.51575331  .00000003  00000+0 -50660-4 0  9991
2 39761  82.4451  95.3730 0021098  34.8794 325.3663 12.42879331550169
COSMOS 2497 (RODNIK-S *)
1 39762U 14028B   26189.57125856  .00000114  00000+0  75476-3 0  9994
2 39762  82.4499  97.0363 0021573  29.9097 330.3210 12.42895516550170
COSMOS 2498 (RODNIK-S *)
1 39763U 14028C   26189.54738238  .00000100  00000+0  64669-3 0  9993
2 39763  82.4459  95.5291 0022291  29.5101 330.7232 12.42981206550204
HODOYOSHI-4             
1 40011U 14033B   26189.55057319  .00001184  00000+0  13363-3 0  9990
2 40011  97.5465  13.3428 0022161 232.7311 127.1885 14.88181268651984
UNISAT-6                
1 40012U 14033C   26189.37861130  .00001615  00000+0  17740-3 0  9997
2 40012  97.7901 341.7213 0044740   0.4555 359.6695 14.88348610649310
DEIMOS-2                
1 40013U 14033D   26189.61900220  .00000957  00000+0  95389-4 0  9993
2 40013  97.5806  63.3524 0001104  83.4674 276.6672 14.93789001640925
BUGSAT-1 (TITA)         
1 40014U 14033E   26189.55792406  .00001966  00000+0  10581-3 0  9993
2 40014  98.0423 283.3606 0029127 107.5760 252.8656 15.15830350659074
SAUDISAT 4              
1 40016U 14033G   26189.35430737  .00000417  00000+0  61719-4 0  9999
2 40016  97.7609 334.7599 0044851   6.4036 353.7740 14.79570691649201
APRIZESAT 9             
1 40018U 14033J   26189.31630843  .00000564  00000+0  89999-4 0  9990
2 40018  97.9086 322.0014 0067180 131.6338 229.0652 14.74246245646677
BRITE-CA1 (TORONTO)     
1 40020U 14033L   26188.82868349  .00000770  00000+0  12320-3 0  9994
2 40020  97.9764 317.3791 0077912 209.9563 149.7175 14.72712458645258
